{
  "norad_id": 38331,
  "name": "JCSAT-13",
  "history": [
    {
      "epoch": "2026-03-28T17:05:07.073088",
      "apogee_km": 35796.962148394094,
      "perigee_km": 35777.59135731603,
      "latitude_deg": 0.018030768153840852,
      "longitude_deg": -118.55880767991766,
      "semi_major_axis_km": 42165.413752855064,
      "eccentricity": 0.0002297,
      "inclination_deg": 0.0189,
      "raan_deg": 106.9419,
      "arg_perigee_deg": 283.5244,
      "mean_anomaly_deg": 175.9151,
      "mean_motion_rev_day": 1.00269353
    },
    {
      "epoch": "2026-03-29T00:34:38.873856",
      "apogee_km": 35795.425491617236,
      "perigee_km": 35776.78046469889,
      "latitude_deg": -0.0004502181644946512,
      "longitude_deg": -88.59014015994035,
      "semi_major_axis_km": 42164.23997815806,
      "eccentricity": 0.0002211,
      "inclination_deg": 0.0204,
      "raan_deg": 104.5174,
      "arg_perigee_deg": 280.5165,
      "mean_anomaly_deg": 294.0446,
      "mean_motion_rev_day": 1.0027354
    }
  ]
}